OSCAR 7 (AO-7)          
1 07530U 74089B   24157.96543185 -.00000035  00000+0  67495-4 0  9996
2 07530 101.9774 152.5090 0012608 105.1165 269.8231 12.53675985267630
PHASE 3B (AO-10)        
1 14129U 83058B   24154.81325360  .00000177  00000+0  00000+0 0  9998
2 14129  27.4446 341.3555 6035112 273.5598  23.4161  2.05862850280169
UOSAT 2 (UO-11)         
1 14781U 84021B   24157.84994423  .00002555  00000+0  29320-3 0  9993
2 14781  97.7038 127.4628 0009679 110.2412 249.9846 14.86682545146809
LUSAT (LO-19)           
1 20442U 90005G   24157.70723130  .00000337  00000+0  13862-3 0  9993
2 20442  98.8819 147.6733 0010970 214.9405 145.1060 14.33544111796130
EYESAT A (AO-27)        
1 22825U 93061C   24157.85686521  .00000258  00000+0  11642-3 0  9999
2 22825  98.7890 210.5137 0009520 110.0635 250.1572 14.30499877600991
ITAMSAT (IO-26)         
1 22826U 93061D   24157.90837787  .00000293  00000+0  12874-3 0  9995
2 22826  98.7837 210.4294 0010111  96.8369 263.3963 14.30881629601282
RADIO ROSTO (RS-15)     
1 23439U 94085A   24157.85025967 -.00000027  00000+0  43778-3 0  9999
2 23439  64.8192  62.1018 0150268 145.9042 215.1644 11.27577224212318
JAS-2 (FO-29)           
1 24278U 96046B   24157.58449619 -.00000018  00000+0  19741-4 0  9998
2 24278  98.5804  93.7613 0349496 218.1771 139.4142 13.53189785373119
TECHSAT 1B (GO-32)      
1 25397U 98043D   24157.85496301  .00000179  00000+0  98029-4 0  9993
2 25397  98.9210 124.4092 0001498 145.8633 214.2642 14.24051859345801
ISS (ZARYA)             
1 25544U 98067A   24158.01020171  .00018410  00000+0  31920-3 0  9993
2 25544  51.6411  10.6753 0005784 279.3726 231.2292 15.50915806456817
PCSAT (NO-44)           
1 26931U 01043C   24157.81621866  .00000349  00000+0  16311-3 0  9996
2 26931  67.0520   0.9305 0006899 280.1638  79.8685 14.31243487184328
SAUDISAT 1C (SO-50)     
1 27607U 02058C   24157.50270784  .00002498  00000+0  35424-3 0  9992
2 27607  64.5556 257.4620 0027449 119.0083 241.3777 14.78969893154598
CUTE-1 (CO-55)          
1 27844U 03031E   24157.77216729  .00000640  00000+0  30180-3 0  9996
2 27844  98.6764 164.9608 0009903 170.5298 189.6069 14.23262651 86166
CUBESAT XI-IV (CO-57)   
1 27848U 03031J   24157.27984357  .00000509  00000+0  24690-3 0  9997
2 27848  98.6797 164.7270 0009404 187.9533 172.1498 14.22703494 85840
MOZHAYETS 4 (RS-22)     
1 27939U 03042A   24157.93212449  .00002300  00000+0  39224-3 0  9999
2 27939  98.2894 313.9550 0013274  96.1765  65.6225 14.69932138106491
CUBESAT XI-V            
1 28895U 05043F   24157.31011603  .00002658  00000+0  47507-3 0  9994
2 28895  98.1998 293.1217 0016231  39.0997 321.1377 14.67675833992715
CUTE-1.7+APD II (CO-65) 
1 32785U 08021C   24157.85205011  .00008203  00000+0  72335-3 0  9992
2 32785  97.7535 123.2748 0011313  15.9721 344.1855 14.96634474873785
SEEDS II (CO-66)        
1 32791U 08021J   24157.62260025  .00011135  00000+0  81713-3 0  9998
2 32791  97.6875 128.8601 0005341   8.8306 351.3012 15.03641762874784
YUBILEINY (RS-30)       
1 32953U 08025A   24157.88496878  .00000026  00000+0  11249-3 0  9991
2 32953  82.5023  96.5157 0020201 126.5386 233.7557 12.43141979727585
KKS-1 (KISEKI)          
1 33499U 09002H   24157.84940517  .00002565  00000+0  35639-3 0  9992
2 33499  98.1409  59.3561 0008962 157.8845 202.2754 14.78741873826876
SWISSCUBE               
1 35932U 09051B   24157.91698757  .00001894  00000+0  41311-3 0  9992
2 35932  98.4729  41.0030 0007391   4.3642 355.7619 14.59057637780918
BEESAT-1                
1 35933U 09051C   24157.23380327  .00001544  00000+0  34076-3 0  9991
2 35933  98.4659  41.2310 0006058  21.2031 338.9418 14.58789940780887
ITUPSAT1                
1 35935U 09051E   24157.92627624  .00001514  00000+0  34185-3 0  9991
2 35935  98.4756  41.7272 0008380  21.6442 338.5108 14.57750349780623
XIWANG-1 (HOPE-1)       
1 36122U 09072B   24157.86301596 -.00000040  00000+0  91698-5 0  9991
2 36122 100.2936 116.4339 0008027 126.1444 234.0413 13.16401810695465
O/OREOS (USA 219)       
1 37224U 10062C   24157.83722135  .00004175  00000+0  46851-3 0  9990
2 37224  71.9723 312.4770 0014545  31.0994 329.1031 14.87246337  6143
JUGNU                   
1 37839U 11058B   24157.95022072  .00000559  00000+0  15349-3 0  9994
2 37839  19.9598 130.1028 0018827 172.1498 216.5339 14.13216460654020
SRMSAT                  
1 37841U 11058D   24157.89318459  .00000559  00000+0  16110-3 0  9994
2 37841  19.9709 225.0957 0011783 331.4327 186.7519 14.11121009652968
M-CUBED & EXP-1 PRIME   
1 37855U 11061F   24157.23131449  .00291714  33189-4  13818-2 0  9998
2 37855 101.6845 336.5363 0033269 355.4868   4.6080 15.82088706691162
STRAND-1                
1 39090U 13009E   24157.78074663  .00000624  00000+0  22905-3 0  9996
2 39090  98.3813 346.3823 0007694 289.6637  70.3718 14.36073517590604
ZACUBE-1 (TSHEPISOSAT)  
1 39417U 13066B   24157.62988036  .00005992  00000+0  62572-3 0  9990
2 39417  97.7334 113.8604 0050162 196.6078 163.3499 14.89135262569863
GOMX-1                  
1 39430U 13066Q   24157.91017314  .00002883  00000+0  48522-3 0  9994
2 39430  97.7341  32.9759 0138665 288.9865  69.6357 14.64144163561396
CUBEBUG-2 (LO-74)       
1 39440U 13066AA  24157.57451238  .00006356  00000+0  75160-3 0  9991
2 39440  97.8129 101.4951 0068575 313.2930  46.2577 14.83288087566615
FUNCUBE-1 (AO-73)       
1 39444U 13066AE  24157.61101668  .00007071  00000+0  68812-3 0  9990
2 39444  97.7184 116.9364 0048297 177.3211 182.8276 14.91956133568380
UWE-3                   
1 39446U 13066AG  24157.80452668  .00005701  00000+0  63823-3 0  9997
2 39446  97.7806 107.7889 0058682 256.5968 102.8702 14.86018744567017
SPROUT                  
1 39770U 14029E   24157.67795768  .00176811  00000+0  37415-2 0  9991
2 39770  98.0076 309.0802 0008826 230.3700 129.6768 15.44415658545870
UNISAT-6                
1 40012U 14033C   24157.91629075  .00003995  00000+0  52487-3 0  9990
2 40012  97.7019 320.8029 0052150 343.4277  16.5229 14.79828709536171
DUCHIFAT-1              
1 40021U 14033M   24157.67466009  .00015077  00000+0  10091-2 0  9997
2 40021  98.0896 140.9198 0014902 133.0213 227.2264 15.06943468542394
QB50P1                  
1 40025U 14033R   24157.47386194  .00008409  00000+0  68759-3 0  9991
2 40025  98.0384 117.8540 0010416 195.8469 164.2428 14.99579424541129
KAITUO 1A               
1 40904U 15049F   24157.91414286  .00051266  00000+0  10211-2 0  9996
2 40904  97.4833 174.2746 0006201  14.1728 345.9694 15.46723692482702
XW-2C                   
1 40906U 15049H   24157.89750851  .00034184  00000+0  80275-3 0  9994
2 40906  97.4776 174.4173 0006879 359.0701   1.0532 15.41931488482732
XW-2D                   
1 40907U 15049J   24157.90509185  .00052716  00000+0  96863-3 0  9990
2 40907  97.4710 176.8200 0004191 348.4148  11.7005 15.49058314482953
LILACSAT-2              
1 40908U 15049K   24157.91800212  .00012286  00000+0  47692-3 0  9991
2 40908  97.5229 166.5468 0013218  38.4996 321.7182 15.26159381481779
XW-2B                   
1 40911U 15049N   24157.86138266  .00050642  00000+0  95469-3 0  9995
2 40911  97.4691 176.8880 0004444 348.8488  11.2663 15.48329837482812
LAPAN-A2                
1 40931U 15052B   24154.23373250  .00001278  00000+0  85541-4 0  9995
2 40931   5.9987  99.5575 0013348 231.3428 128.5504 14.77856046469359
FOX-1A (AO-85)          
1 40967U 15058D   24157.31630640  .00004419  00000+0  42054-3 0  9992
2 40967  64.7798  51.9128 0189189 307.5792  50.8262 14.82160922  3230
CAS-2T & KS-1Q          
1 41847U 16066G   24157.43576094  .00001964  00000+0  29618-3 0  9998
2 41847  98.4608 228.8223 0353670 212.6058 145.2847 14.41204287397807
ZHUHAI-1 02 (CAS-4B)    
1 42759U 17034B   24157.80365807  .00019664  00000+0  71438-3 0  9999
2 42759  43.0180 290.8800 0013332 273.9551  85.9777 15.27861837385665
ZHUHAI-1 01 (CAS-4A)    
1 42761U 17034D   24157.80577341  .00020448  00000+0  74012-3 0  9993
2 42761  43.0224 289.2237 0012192 282.6700  77.2789 15.27976145385665
MAX VALIER SAT          
1 42778U 17036P   24157.83374765  .00373952  52703-4  13681-2 0  9998
2 42778  97.0845 195.7235 0006272 193.5838 166.5267 15.88323660387787
RADFXSAT (FOX-1B)       
1 43017U 17073E   24157.19521770  .00011217  00000+0  69752-3 0  9997
2 43017  97.5801  33.1083 0210144 334.2906  24.7982 14.93231031353879
DIWATA-2B               
1 43678U 18084H   24157.89848364  .00002457  00000+0  22871-3 0  9998
2 43678  98.0696 315.5573 0010078  71.8770 288.3547 14.95251380305231
ES'HAIL 2               
1 43700U 18090A   24157.74532088  .00000147  00000+0  00000+0 0  9998
2 43700   0.0186  18.2449 0001597  99.0599  71.4529  1.00272357 20245
FOX-1CLIFF (AO-95)      
1 43770U 18099N   24157.40980683  .00008792  00000+0  61174-3 0  9992
2 43770  97.5464 215.5073 0014788  49.4428 310.8084 15.05626326300799
ITASAT                  
1 43786U 18099AE  24157.88432479  .00008022  00000+0  58045-3 0  9995
2 43786  97.5120 215.4676 0018193  37.3352 322.9135 15.04135533300873
JY1SAT (JO-97)          
1 43803U 18099AX  24157.61577709  .00010790  00000+0  71999-3 0  9990
2 43803  97.5213 216.5434 0009030 352.1177   7.9907 15.07180857300951
UWE-4                   
1 43880U 18111E   24157.19855750  .00011714  00000+0  73547-3 0  9996
2 43880  97.6138  63.0088 0018492  54.6444 305.6509 15.09296041297626
JAISAT-1                
1 44419U 19038F   24157.72766498  .01872087  29902-2  19908-2 0  9997
2 44419  97.6543 166.6547 0008542 181.7707 178.3548 16.10906658273395
DUCHIFAT-3              
1 44854U 19089C   24157.93070323  .00019590  00000+0  99773-3 0  9999
2 44854  36.9563 117.3456 0006638 334.2329  25.8087 15.16068344246566
